LANDSAT 9               
1 49260U 21088A   23252.21415976  .00000474  00000+0  11536-3 0  9992
2 49260  98.2234 321.0758 0001438  96.8254 263.3108 14.57100818103638
